FLOCK 4E'-1             
1 46813U 20077A   23124.44146936  .00039692  00000+0  98683-3 0  9992
2 46813  97.3712 189.7390 0006328   9.6064 350.5302 15.40173438139483
FLOCK 4E'-7             
1 46814U 20077B   23124.39488369  .00030760  00000+0  77521-3 0  9991
2 46814  97.3722 189.8314 0006935   9.9261 350.2120 15.39808476139488
FLOCK 4E'-9             
1 46815U 20077C   23123.10058962  .00015749  00000+0  59642-3 0  9996
2 46815  97.3716 185.5954 0009363  14.6697 345.4812 15.26958655139114
FLOCK 4E'-8             
1 46816U 20077D   23123.09652031  .00033577  00000+0  86580-3 0  9992
2 46816  97.3762 189.9497 0006076 348.5457  11.5649 15.39095035139361
FLOCK 4E'-5             
1 46817U 20077E   23124.42983924  .00049650  00000+0  12466-2 0  9999
2 46817  97.3739 190.6463 0007249 347.2097  12.8964 15.39814894139521
CE-SAT IIB              
1 46818U 20077F   23124.51368426  .00007928  00000+0  34548-3 0  9992
2 46818  97.3709 185.5450 0011979 358.0978   2.0210 15.22397281139221
FLOCK 4E'-3             
1 46819U 20077G   23124.34720427  .00026836  00000+0  67592-3 0  9991
2 46819  97.3711 190.3026 0007378 341.6728  18.4251 15.39850836139513
FLOCK 4E'-2             
1 46820U 20077H   23122.89566526  .00017403  00000+0  57390-3 0  9994
2 46820  97.3795 188.6561 0009356 340.9147  19.1743 15.31463523139234
FLOCK 4E'-4             
1 46821U 20077J   23123.13270317  .00016898  00000+0  60560-3 0  9993
2 46821  97.3765 187.5730 0010426 337.3518  22.7260 15.28752691139170
FLOCK 4E'-6             
1 46822U 20077K   23124.12537387  .00020181  00000+0  73821-3 0  9991
2 46822  97.3737 187.3193 0007324 340.8970  19.2001 15.28068058139323
FLOCK 4V-26             
1 46825U 20061BQ  23124.16619008  .00022133  00000+0  70275-3 0  9991
2 46825  97.3613 196.7485 0004246  90.7923 269.5416 15.32664111139323
NAVSTAR 80 (USA 309)    
1 46826U 20078A   23124.00661269 -.00000018  00000+0  00000+0 0  9993
2 46826  54.3756 257.0760 0030837 190.0278 164.2967  2.00563099 18630
NUSAT-12 (DOROTHY)      
1 46827U 20079A   23124.48007831  .00064538  00000+0  83507-3 0  9999
2 46827  97.1491 195.5185 0006507 195.5468 292.5080 15.58686654139654
NUSAT-9 (ALICE)         
1 46828U 20079B   23124.50023726  .00072207  00000+0  85855-3 0  9994
2 46828  97.1362 195.0507 0003233 202.3202 287.9586 15.60908853139729
NUSAT-11 (CORA)         
1 46829U 20079C   23124.56297667  .00071987  00000+0  86466-3 0  9991
2 46829  97.1437 195.6495 0005121 203.2464 264.2767 15.60634686139722
NUSAT-15 (KATHERINE)    
1 46830U 20079D   23124.52825672  .00069879  00000+0  85470-3 0  9993
2 46830  97.1584 197.3388 0004276 184.5349 299.2688 15.60170403139722
NUSAT-14 (HEDY)         
1 46831U 20079E   23124.53041538  .00076959  00000+0  87197-3 0  9991
2 46831  97.1528 197.5056 0006628 189.4035 294.1545 15.62127938139761
NUSAT-10 (CAROLINE)     
1 46832U 20079F   23124.46751507  .00054583  00000+0  75967-3 0  9999
2 46832  97.1572 196.3168 0005159 196.3951 290.7816 15.56778981139670
NUSAT-13 (EMMY)         
1 46833U 20079G   23124.52002840  .00054153  00000+0  75508-3 0  9990
2 46833  97.1557 196.2026 0005641 207.3760 276.9565 15.56728233139675
NUSAT-17 (MARY)         
1 46835U 20079J   23124.49940456  .00056944  00000+0  78170-3 0  9990
2 46835  97.1564 195.9128 0005249 212.5949 271.9019 15.57140336139655
NUSAT-18 (VERA)         
1 46836U 20079K   23124.51752897  .00062572  00000+0  80757-3 0  9992
2 46836  97.1566 196.7333 0005555 218.3213 266.4759 15.58768676139703
NUSAT-16 (LISE)         
1 46840U 20079P   23124.55229903  .00068246  00000+0  84546-3 0  9992
2 46840  97.1618 197.1890 0003860 205.2602 261.8054 15.59841516139717
TIANQI-11               
1 46904U 20080A   23124.45097406  .00051097  00000+0  92303-3 0  9991
2 46904  97.4945 260.1054 0006480 307.3235 123.8671 15.49540000138820
RISAT-2BR2              
1 46905U 20081A   23124.51329137  .00003239  00000+0  27114-3 0  9992
2 46905  36.9005 134.9338 0001959 305.8484  54.2079 14.98617286136263
KSM1-C                  
1 46906U 20081B   23124.41407581  .00004309  00000+0  31764-3 0  9997
2 46906  36.8932 118.2641 0004007 157.5728 202.5189 15.03242927136357
KSM1-D                  
1 46907U 20081C   23124.41103462  .00004066  00000+0  30041-3 0  9996
2 46907  36.8977 118.4932 0006585 172.9760 187.1075 15.03192124136379
LEMUR-2-OZARAK          
1 46908U 20081D   23124.32160726  .00011581  00000+0  71195-3 0  9998
2 46908  36.9000 110.5510 0008358 205.2469 154.7868 15.09475513136517
LEMUR-2-JINDRA          
1 46909U 20081E   23124.26259262  .00013476  00000+0  78913-3 0  9996
2 46909  36.9027 107.3171 0009365 212.0245 147.9945 15.11183736136551
LEMUR-2-WALLACE         
1 46910U 20081F   23124.14962707  .00013121  00000+0  78506-3 0  9995
2 46910  36.8998 109.1732 0008182 206.9119 153.1217 15.10422034136513
LEMUR-2-JEREMIAH        
1 46911U 20081G   23124.31183949  .00009520  00000+0  58155-3 0  9994
2 46911  36.9056 108.6810 0010128 207.9334 152.0867 15.09763770136549
KSM1-A                  
1 46912U 20081H   23124.42469674  .00004359  00000+0  32125-3 0  9993
2 46912  36.8986 117.2983 0005579 242.5911 244.7793 15.03238384136446
R2                      
1 46913U 20081J   23124.36029374  .00004202  00000+0  30778-3 0  9995
2 46913  36.9015 116.4824 0011460 186.0264 174.0341 15.03460514139208
KSM1-B                  
1 46914U 20081K   23124.43885052  .00004171  00000+0  30807-3 0  9995
2 46914  36.9029 117.6360 0008997 194.8390 295.3181 15.03172472135714
TIANTONG-1 2            
1 46916U 20082A   23124.48465148 -.00000345  00000+0  00000+0 0  9991
2 46916   3.3510 293.6674 0002272 148.5564  79.3400  1.00270206  9227
CORVUS BC5              
1 46931U 20085C   23124.36695069  .00027231  00000+0  69887-3 0  9999
2 46931  97.4816 268.9431 0009903  11.6206 348.5266 15.39252202136522
BRO-2                   
1 46940U 20085M   23124.47411145  .00016339  00000+0  52620-3 0  9996
2 46940  97.4883 266.4582 0009850  40.5372  33.1165 15.32236963136324
BRO-3                   
1 46943U 20085Q   23124.45798303  .00035757  00000+0  83552-3 0  9994
2 46943  97.4610 266.9309 0007133  41.1155  30.6347 15.42069304136480
DRAGRACER 2 (AUGURY)    
1 46955U 20085AC  23124.36585890  .00006264  00000+0  24841-3 0  9999
2 46955  97.4871 262.9777 0013561  61.4198 298.8403 15.25657260136128
SENTINEL-6              
1 46984U 20086A   23124.33299040 -.00000061  00000+0  00000+0 0  9995
2 46984  66.0449 342.5509 0008021 265.2866  94.7237 12.80931080114466
CHANG'E-5               
1 47097U 20087A   23101.45028900 -.00035059  00000+0  00000+0 0  9990
2 47097  26.9876   8.1365 5592810 296.0191 345.9633  0.02188681   533
STARLINK-1777           
1 47122U 20088A   23124.29559916 -.00002459  00000+0 -14621-3 0  9990
2 47122  53.0538 292.1346 0001183  94.6274 265.4851 15.06405374135021
STARLINK-1785           
1 47124U 20088C   23124.48128644  .00004665  00000+0  33177-3 0  9999
2 47124  53.0532 296.3043 0002145  86.6506 273.4728 15.06412682135285
STARLINK-1812           
1 47126U 20088E   23124.45410225 -.00002848  00000+0 -17245-3 0  9998
2 47126  53.0530 291.4179 0001429  68.6158 291.4984 15.06389569135054
STARLINK-1837           
1 47128U 20088G   23124.54440824 -.00007503  00000+0 -48558-3 0  9992
2 47128  53.0529 271.0117 0000898  65.1160 294.9922 15.06382716135646
STARLINK-1838           
1 47129U 20088H   23124.57296569  .00010890  00000+0  74911-3 0  9994
2 47129  53.0536 280.8811 0001250  98.5225 261.5905 15.06385897135216
STARLINK-1843           
1 47133U 20088M   23124.43290063  .00003023  00000+0  22182-3 0  9990
2 47133  53.0530 281.5098 0001768  95.1648 264.9542 15.06388400135189
STARLINK-1844           
1 47134U 20088N   23124.47253061  .00006094  00000+0  42765-3 0  9992
2 47134  53.0540 291.3333 0001144  87.0607 273.0513 15.06396821135056
STARLINK-1845           
1 47135U 20088P   23124.42552487 -.00003849  00000+0 -23975-3 0  9991
2 47135  53.0527 281.5419 0000883 107.7995 252.3091 15.06383777135188
STARLINK-1846           
1 47136U 20088Q   23124.49095363 -.00002575  00000+0 -15397-3 0  9998
2 47136  53.0533 291.2538 0002175  88.5566 271.5672 15.06407833135359
STARLINK-1849           
1 47137U 20088R   23124.47344921 -.00000658  00000+0 -25274-4 0  9990
2 47137  53.0536 281.3272 0001759  75.6403 284.4781 15.06400396135195
STARLINK-1850           
1 47138U 20088S   23124.47117945 -.00008361  00000+0 -54319-3 0  9995
2 47138  53.0539 286.6573 0001094  83.1364 276.9749 15.06391339135122
STARLINK-1852           
1 47139U 20088T   23124.19011481 -.00001392  00000+0 -74538-4 0  9996
2 47139  53.0536 297.8084 0001136 105.7855 254.3259 15.06407298135234
STARLINK-1854           
1 47141U 20088V   23124.58033956  .00010287  00000+0  70877-3 0  9995
2 47141  53.0540 280.8469 0001591  83.6514 276.4656 15.06383945135218
STARLINK-1856           
1 47143U 20088X   23124.42921436 -.00013931  00000+0 -91866-3 0  9991
2 47143  53.0524 281.5238 0000565  49.0445 311.0592 15.06381348135189
STARLINK-1857           
1 47144U 20088Y   23124.54808472 -.00003970  00000+0 -24784-3 0  9996
2 47144  53.0530 270.9958 0001082  90.4031 269.7082 15.06395555135340
STARLINK-1860           
1 47147U 20088AB  23124.50567657  .00004932  00000+0  34959-3 0  9994
2 47147  53.0550 291.1914 0001617  88.0714 272.0460 15.06418011135314
STARLINK-1861           
1 47148U 20088AC  23124.41447516 -.00004776  00000+0 -30201-3 0  9990
2 47148  53.0554 281.5987 0001464  75.4994 284.6157 15.06391251135185
STARLINK-1862           
1 47149U 20088AD  23124.17764242 -.00008003  00000+0 -51895-3 0  9991
2 47149  53.0539 292.6550 0000887  80.5926 279.5164 15.06402401135268
STARLINK-1863           
1 47150U 20088AE  23124.50293234 -.00005352  00000+0 -34075-3 0  9993
2 47150  53.0525 281.1980 0001304  95.8159 264.2979 15.06391204135204
